YAOGAN-30 07A           
1 45460U 20021A   26068.55604639  .00004701  00000+0  35264-3 0  9998
2 45460  34.9941  97.9026 0004392 231.7665 128.2648 15.02093562325567
STARLINK-5832           
1 57063U 23088R   26068.09180377 -.00002268  00000+0 -15286-3 0  9993
2 57063  43.0018 110.3825 0000923 248.4688 111.6056 15.02543422150287
